{"spkid": "50840733", "covariance": {"labels": ["e", "q", "tp", "node", "peri", "i"], "elements": [{"sigma": 2.10062764887869e-08, "name": "e", "units": null, "title": "eccentricity", "value": ".2836121815867574", "label": "e"}, {"value": "1.03963204346405", "title": "perihelion distance", "units": "au", "sigma": 3.0759620101879e-08, "name": "q", "label": "q"}, {"label": "tp", "units": "TDB", "value": "2458582.696745825880", "title": "time of perihelion passage", "name": "tp", "sigma": 4.94017924836525e-05}, {"units": "deg", "value": "47.03837959561673", "title": "longitude of the ascending node", "sigma": 6.28607864062816e-05, "name": "om", "label": "node"}, {"label": "peri", "value": "152.2453507108989", "title": "argument of perihelion", "units": "deg", "sigma": 0.000105987575359616, "name": "w"}, {"name": "i", "sigma": 7.33774105499526e-06, "title": "inclination", "value": "3.181824628919606", "units": "deg", "label": "i"}], "data": [["4.412636519233608E-16", "-6.458352056976648E-16", "-3.574723796077364E-13", "2.072561215992582E-13", "-5.827305671367517E-13", "-6.974363395312723E-14"], ["-6.458352056976648E-16", "9.461542288119197E-16", "5.291502920309688E-13", "-3.058236743106712E-13", "8.617362400271112E-13", "1.024528618529299E-13"], ["-3.574723796077364E-13", "5.291502920309688E-13", "2.440537100597866E-9", "-2.220809737341207E-9", "4.767580006721089E-9", "2.94099865492249E-10"], ["2.072561215992582E-13", "-3.058236743106712E-13", "-2.220809737341207E-9", "3.951478467616156E-9", "-6.263312854344798E-9", "-4.224889078848884E-10"], ["-5.827305671367517E-13", "8.617362400271112E-13", "4.767580006721089E-9", "-6.263312854344798E-9", "1.123336613061029E-8", "7.291709807935903E-10"], ["-6.974363395312723E-14", "1.024528618529299E-13", "2.94099865492249E-10", "-4.224889078848884E-10", "7.291709807935903E-10", "5.384244379016288E-11"]], "epoch": "2458899.5"}, "elements": [{"name": "e", "sigma": "2.0582E-8", "units": null, "title": "eccentricity", "value": ".2826818418300006", "label": "e"}, {"name": "a", "sigma": "1.6666E-9", "units": "au", "title": "semi-major axis", "value": "1.449448380093241", "label": "a"}, {"label": "q", "value": "1.039715642370973", "title": "perihelion distance", "units": "au", "sigma": "3.0869E-8", "name": "q"}, {"label": "i", "sigma": "7.3335E-6", "name": "i", "units": "deg", "value": "3.189148839755651", "title": "inclination; angle with respect to x-y ecliptic plane"}, {"label": "node", "units": "deg", "title": "longitude of the ascending node", "value": "46.87266285024594", "name": "om", "sigma": "6.2328E-5"}, {"label": "peri", "title": "argument of perihelion", "value": "152.5381513539664", "units": "deg", "name": "w", "sigma": ".00010535"}, {"sigma": "2.8345E-5", "name": "ma", "units": "deg", "title": "mean anomaly", "value": "35.69445977414919", "label": "M"}, {"label": "tp", "units": "TDB", "value": "2461137.302358733047", "title": "time of perihelion passage", "sigma": "5.0149E-5", "name": "tp"}, {"label": "period", "sigma": "1.0993E-6", "name": "per", "value": "637.3860537477593", "title": "sidereal orbital period", "units": "d"}, {"label": "n", "units": "deg/d", "title": "mean motion", "value": ".5648068354857153", "name": "n", "sigma": "9.7411E-10"}, {"name": "ad", "sigma": "2.1377E-9", "units": "au", "value": "1.859181117815508", "title": "aphelion distance", "label": "Q"}], "epoch": "2461200.5"}